{
  "norad_id": 55350,
  "name": "STARLINK-5668",
  "history": [
    {
      "epoch": "2026-03-28T22:00:01.999584Z",
      "apogee_km": 498.17988023818,
      "perigee_km": 496.08801030037284,
      "latitude_deg": -24.289212142591456,
      "longitude_deg": -113.23979497603074,
      "height_km": 502.3555019049644,
      "semi_major_axis_km": 6875.270945269276,
      "eccentricity": 0.00015213,
      "inclination_deg": 42.9991,
      "raan_deg": 194.3286,
      "arg_perigee_deg": 266.7174,
      "mean_anomaly_deg": 310.1137,
      "mean_motion_rev_day": 15.22888248
    },
    {
      "epoch": "2026-03-29T04:00:01.999584Z",
      "apogee_km": 497.2631097067633,
      "perigee_km": 495.28053020308744,
      "latitude_deg": 20.509563516204704,
      "longitude_deg": 102.82799605375634,
      "height_km": 496.1570161889404,
      "semi_major_axis_km": 6874.408819954925,
      "eccentricity": 0.0001442,
      "inclination_deg": 42.9999,
      "raan_deg": 192.9246,
      "arg_perigee_deg": 269.2345,
      "mean_anomaly_deg": 239.971,
      "mean_motion_rev_day": 15.23174737
    },
    {
      "epoch": "2026-03-30T04:00:01.999584Z",
      "apogee_km": 493.7810245833116,
      "perigee_km": 491.32131821795065,
      "latitude_deg": -36.9437381418585,
      "longitude_deg": 173.0592616416101,
      "height_km": 502.1529773922843,
      "semi_major_axis_km": 6870.688171400631,
      "eccentricity": 0.000179,
      "inclination_deg": 42.9997,
      "raan_deg": 187.3082,
      "arg_perigee_deg": 255.8987,
      "mean_anomaly_deg": 345.4779,
      "mean_motion_rev_day": 15.2441216
    },
    {
      "epoch": "2026-03-30T06:00:02.000160Z",
      "apogee_km": 493.5816905098018,
      "perigee_km": 490.95293641138596,
      "latitude_deg": -14.098426679407906,
      "longitude_deg": -106.34875233405138,
      "height_km": 494.32344391004045,
      "semi_major_axis_km": 6870.404313460594,
      "eccentricity": 0.00019131,
      "inclination_deg": 43.0,
      "raan_deg": 186.84,
      "arg_perigee_deg": 276.5425,
      "mean_anomaly_deg": 62.7131,
      "mean_motion_rev_day": 15.24506635
    },
    {
      "epoch": "2026-03-30T14:00:03.000384Z",
      "apogee_km": 492.3666601724017,
      "perigee_km": 489.7580130323331,
      "latitude_deg": 7.573224696986679,
      "longitude_deg": 155.13446401470983,
      "height_km": 489.673658842142,
      "semi_major_axis_km": 6869.199336602367,
      "eccentricity": 0.00018988,
      "inclination_deg": 43.0,
      "raan_deg": 184.9687,
      "arg_perigee_deg": 303.6264,
      "mean_anomaly_deg": 67.5133,
      "mean_motion_rev_day": 15.2490779
    },
    {
      "epoch": "2026-03-30T22:00:00.999936Z",
      "apogee_km": 490.9419352165869,
      "perigee_km": 488.48997435466936,
      "latitude_deg": 28.01118011083552,
      "longitude_deg": 59.346915583185506,
      "height_km": 490.39832435071867,
      "semi_major_axis_km": 6867.852954785628,
      "eccentricity": 0.00017851,
      "inclination_deg": 42.9999,
      "raan_deg": 183.0898,
      "arg_perigee_deg": 293.6513,
      "mean_anomaly_deg": 109.6666,
      "mean_motion_rev_day": 15.25356229
    },
    {
      "epoch": "2026-03-31T20:00:01.999008Z",
      "apogee_km": 487.1906975458951,
      "perigee_km": 484.5906038718058,
      "latitude_deg": 28.856217241930434,
      "longitude_deg": 84.70486298444753,
      "height_km": 487.16702465523866,
      "semi_major_axis_km": 6864.02765070885,
      "eccentricity": 0.0001894,
      "inclination_deg": 42.9999,
      "raan_deg": 177.9279,
      "arg_perigee_deg": 272.21,
      "mean_anomaly_deg": 132.6227,
      "mean_motion_rev_day": 15.26631522
    },
    {
      "epoch": "2026-04-01T20:00:01.999008Z",
      "apogee_km": 486.70094555639207,
      "perigee_km": 484.39474744796735,
      "latitude_deg": 21.627180826021032,
      "longitude_deg": -162.92183789489843,
      "height_km": 485.8152107688731,
      "semi_major_axis_km": 6863.684846502179,
      "eccentricity": 0.000168,
      "inclination_deg": 43.0,
      "raan_deg": 172.29,
      "arg_perigee_deg": 279.8573,
      "mean_anomaly_deg": 227.5599,
      "mean_motion_rev_day": 15.26745894
    },
    {
      "epoch": "2026-04-02T20:00:01.999008Z",
      "apogee_km": 486.690416406881,
      "perigee_km": 484.3553993062287,
      "latitude_deg": -40.05741388074946,
      "longitude_deg": -80.80875439978007,
      "height_km": 496.57184174582943,
      "semi_major_axis_km": 6863.659907856554,
      "eccentricity": 0.0001701,
      "inclination_deg": 42.9999,
      "raan_deg": 166.6499,
      "arg_perigee_deg": 279.1166,
      "mean_anomaly_deg": 331.0041,
      "mean_motion_rev_day": 15.26754215
    },
    {
      "epoch": "2026-04-02T22:00:01.999584Z",
      "apogee_km": 486.6914511449231,
      "perigee_km": 484.44496043106847,
      "latitude_deg": -7.770130616327078,
      "longitude_deg": -3.4549271236518546,
      "height_km": 486.3051205312076,
      "semi_major_axis_km": 6863.7052057879955,
      "eccentricity": 0.00016365,
      "inclination_deg": 43.0,
      "raan_deg": 166.1792,
      "arg_perigee_deg": 278.1278,
      "mean_anomaly_deg": 70.5716,
      "mean_motion_rev_day": 15.26739101
    },
    {
      "epoch": "2026-04-03T20:00:01.999008Z",
      "apogee_km": 486.65098750165635,
      "perigee_km": 484.38872620163784,
      "latitude_deg": -4.95202998598448,
      "longitude_deg": 23.536698087429894,
      "height_km": 485.9059438391621,
      "semi_major_axis_km": 6863.656856851647,
      "eccentricity": 0.0001648,
      "inclination_deg": 42.9997,
      "raan_deg": 161.0089,
      "arg_perigee_deg": 271.2556,
      "mean_anomaly_deg": 81.5818,
      "mean_motion_rev_day": 15.26755233
    },
    {
      "epoch": "2026-04-04T05:27:10.157760Z",
      "apogee_km": 486.6213979564427,
      "perigee_km": 484.5049073773671,
      "latitude_deg": -1.2731579206743134e-05,
      "longitude_deg": -115.55512309676084,
      "height_km": 485.25398565076586,
      "semi_major_axis_km": 6863.700152666905,
      "eccentricity": 0.00015418,
      "inclination_deg": 43.0006,
      "raan_deg": 158.7874,
      "arg_perigee_deg": 274.6692,
      "mean_anomaly_deg": 85.3983,
      "mean_motion_rev_day": 15.26740787
    },
    {
      "epoch": "2026-04-05T12:50:33.301824Z",
      "apogee_km": 484.78695519929806,
      "perigee_km": 483.47173323176594,
      "latitude_deg": -3.0849604866654494e-05,
      "longitude_deg": 124.92159055888705,
      "height_km": 484.3552244002855,
      "semi_major_axis_km": 6862.266344215532,
      "eccentricity": 9.583e-05,
      "inclination_deg": 42.9988,
      "raan_deg": 151.3997,
      "arg_perigee_deg": 226.8257,
      "mean_anomaly_deg": 133.2514,
      "mean_motion_rev_day": 15.2721931
    },
    {
      "epoch": "2026-04-06T04:32:17.141856Z",
      "apogee_km": 484.81603141651794,
      "perigee_km": 483.0161148954294,
      "latitude_deg": 1.8352583143487765e-05,
      "longitude_deg": -114.8452168084656,
      "height_km": 483.61820288319615,
      "semi_major_axis_km": 6862.053073155973,
      "eccentricity": 0.00013115,
      "inclination_deg": 43.0017,
      "raan_deg": 147.7101,
      "arg_perigee_deg": 274.7626,
      "mean_anomaly_deg": 85.3076,
      "mean_motion_rev_day": 15.27290509
    },
    {
      "epoch": "2026-04-07T14:00:01.999872Z",
      "apogee_km": 484.16912214369495,
      "perigee_km": 482.0950977171442,
      "latitude_deg": 37.84569985792194,
      "longitude_deg": -141.98015593926496,
      "height_km": 486.1606794328043,
      "semi_major_axis_km": 6861.269109930419,
      "eccentricity": 0.00015114,
      "inclination_deg": 43.0,
      "raan_deg": 139.8398,
      "arg_perigee_deg": 283.0738,
      "mean_anomaly_deg": 193.1995,
      "mean_motion_rev_day": 15.27552277
    },
    {
      "epoch": "2026-04-07T19:46:15.775680Z",
      "apogee_km": 483.9926929088242,
      "perigee_km": 482.1140989784153,
      "latitude_deg": -8.342720829144945e-06,
      "longitude_deg": 5.818102535314574,
      "height_km": 482.66633767942113,
      "semi_major_axis_km": 6861.1903959436195,
      "eccentricity": 0.0001369,
      "inclination_deg": 43.0017,
      "raan_deg": 138.479,
      "arg_perigee_deg": 280.051,
      "mean_anomaly_deg": 80.0187,
      "mean_motion_rev_day": 15.27578564
    },
    {
      "epoch": "2026-04-08T16:00:01.999584Z",
      "apogee_km": 484.0362224828077,
      "perigee_km": 482.0628080172919,
      "latitude_deg": -25.693856421208913,
      "longitude_deg": 25.91530926060223,
      "height_km": 488.71618979087623,
      "semi_major_axis_km": 6861.1865152500495,
      "eccentricity": 0.00014381,
      "inclination_deg": 43.0002,
      "raan_deg": 133.7203,
      "arg_perigee_deg": 278.7585,
      "mean_anomaly_deg": 42.0467,
      "mean_motion_rev_day": 15.2757986
    }
  ]
}